[{"OBJECT_NAME":"COSMOS 2509 (RODNIK-S 15)","OBJECT_ID":"2015-050C","EPOCH":"2026-03-09T22:54:13.887360","MEAN_MOTION":12.42930668,"ECCENTRICITY":0.00133619,"INCLINATION":82.4893,"RA_OF_ASC_NODE":140.0933,"ARG_OF_PERICENTER":255.6578,"MEAN_ANOMALY":104.3019,"EPHEMERIS_TYPE":0,"CLASSIFICATION_TYPE":"U","NORAD_CAT_ID":40922,"ELEMENT_SET_NO":999,"REV_AT_EPOCH":47455,"BSTAR":0.00051118704,"MEAN_MOTION_DOT":8.1e-7,"MEAN_MOTION_DDOT":0},{"OBJECT_NAME":"UNKNOWN","OBJECT_ID":"","EPOCH":"2026-03-06T08:17:18.140640","MEAN_MOTION":12.22972953,"ECCENTRICITY":0.01318317,"INCLINATION":74.0018,"RA_OF_ASC_NODE":300.6153,"ARG_OF_PERICENTER":278.6902,"MEAN_ANOMALY":79.922,"EPHEMERIS_TYPE":0,"CLASSIFICATION_TYPE":"U","NORAD_CAT_ID":270065,"ELEMENT_SET_NO":999,"REV_AT_EPOCH":28014,"BSTAR":-1.8840341e-5,"MEAN_MOTION_DOT":-1.8e-7,"MEAN_MOTION_DDOT":0}]
